{"type": "FeatureCollection", "features": [ {"type": "Feature", "properties": {"norad_id": 33939, "name": "COSMOS 2251 DEB", "group": "cosmos-2251-debris", "lat": -67.82248507825426, "lon": 19.699873835277863, "alt_km": 573.2737477223554, "timestamp": "2025-12-20T16:47:36.677896+00:00", "meta": {"OBJECT_NAME": "COSMOS 2251 DEB", "OBJECT_ID": "1993-036EU", "EPOCH": "2025-12-20T07:31:23.246400", "MEAN_MOTION": 15.00385618, "ECCENTRICITY": 0.0004467, "INCLINATION": 74.0068, "RA_OF_ASC_NODE": 65.2033, "ARG_OF_PERICENTER": 29.9218, "MEAN_ANOMALY": 330.2223, "EPHEMERIS_TYPE": 0, "CLASSIFICATION_TYPE": "U", "NORAD_CAT_ID": 33939, "ELEMENT_SET_NO": 999, "REV_AT_EPOCH": 88866, "BSTAR": 0.0017524, "MEAN_MOTION_DOT": 0.00022053, "MEAN_MOTION_DDOT": 0}, "tle": {"line1": "1 33939U 93036EU  25354.31346350  .00022053  00000+0  17524-2 0  9994", "line2": "2 33939  74.0068  65.2033 0004467  29.9218 330.2223 15.00385618888663"}}, "geometry": {"type": "Point", "coordinates": [19.699873835277863, -67.82248507825426]}}, {"type": "Feature", "properties": {"norad_id": 33940, "name": "COSMOS 2251 DEB", "group": "cosmos-2251-debris", "lat": -45.30394808238697, "lon": 111.52739009940801, "alt_km": 705.0671402103162, "timestamp": "2025-12-20T16:47:36.677906+00:00", "meta": {"OBJECT_NAME": "COSMOS 2251 DEB", "OBJECT_ID": "1993-036EV", "EPOCH": "2025-12-20T10:41:15.075168", "MEAN_MOTION": 14.58861879, "ECCENTRICITY": 0.0010952, "INCLINATION": 74.0394, "RA_OF_ASC_NODE": 128.8243, "ARG_OF_PERICENTER": 209.208, "MEAN_ANOMALY": 207.4516, "EPHEMERIS_TYPE": 0, "CLASSIFICATION_TYPE": "U", "NORAD_CAT_ID": 33940, "ELEMENT_SET_NO": 999, "REV_AT_EPOCH": 88706, "BSTAR": 0.00073497, "MEAN_MOTION_DOT": 3.416e-05, "MEAN_MOTION_DDOT": 0}, "tle": {"line1": "1 33940U 93036EV  25354.44531337  .00003416  00000+0  73497-3 0  9995", "line2": "2 33940  74.0394 128.8243 0010952 209.2080 207.4516 14.58861879887065"}}, "geometry": {"type": "Point", "coordinates": [111.52739009940801, -45.30394808238697]}}, {"type": "Feature", "properties": {"norad_id": 33942, "name": "COSMOS 2251 DEB", "group": "cosmos-2251-debris", "lat": -73.79715042480986, "lon": -179.91600828379396, "alt_km": 766.8039253879733, "timestamp": "2025-12-20T16:47:36.677930+00:00", "meta": {"OBJECT_NAME": "COSMOS 2251 DEB", "OBJECT_ID": "1993-036EX", "EPOCH": "2025-12-20T04:35:24.686016", "MEAN_MOTION": 14.37998555, "ECCENTRICITY": 0.00206331, "INCLINATION": 74.0365, "RA_OF_ASC_NODE": 261.1058, "ARG_OF_PERICENTER": 342.9597, "MEAN_ANOMALY": 178.8252, "EPHEMERIS_TYPE": 0, "CLASSIFICATION_TYPE": "U", "NORAD_CAT_ID": 33942, "ELEMENT_SET_NO": 999, "REV_AT_EPOCH": 88241, "BSTAR": 0.00015948369, "MEAN_MOTION_DOT": 4.57e-06, "MEAN_MOTION_DDOT": 0}, "tle": {"line1": "1 33942U 93036EX  25354.19125794  .00000457  00000+0  15948-3 0  9994", "line2": "2 33942  74.0365 261.1058 0020633 342.9597 178.8252 14.37998555882416"}}, "geometry": {"type": "Point", "coordinates": [-179.91600828379396, -73.79715042480986]}}, {"type": "Feature", "properties": {"norad_id": 33944, "name": "COSMOS 2251 DEB", "group": "cosmos-2251-debris", "lat": 47.06961276316551, "lon": 96.3657634138025, "alt_km": 773.6923598519579, "timestamp": "2025-12-20T16:47:36.677942+00:00", "meta": {"OBJECT_NAME": "COSMOS 2251 DEB", "OBJECT_ID": "1993-036EZ", "EPOCH": "2025-12-20T06:56:11.640768", "MEAN_MOTION": 14.37359, "ECCENTRICITY": 0.0112501, "INCLINATION": 74.0407, "RA_OF_ASC_NODE": 295.0369, "ARG_OF_PERICENTER": 32.7035, "MEAN_ANOMALY": 132.0062, "EPHEMERIS_TYPE": 0, "CLASSIFICATION_TYPE": "U", "NORAD_CAT_ID": 33944, "ELEMENT_SET_NO": 999, "REV_AT_EPOCH": 88136, "BSTAR": 0.00026372, "MEAN_MOTION_DOT": 8.2e-06, "MEAN_MOTION_DDOT": 0}, "tle": {"line1": "1 33944U 93036EZ  25354.28902362  .00000820  00000+0  26372-3 0  9997", "line2": "2 33944  74.0407 295.0369 0112501  32.7035 132.0062 14.37359000881363"}}, "geometry": {"type": "Point", "coordinates": [96.3657634138025, 47.06961276316551]}}, {"type": "Feature", "properties": {"norad_id": 33945, "name": "COSMOS 2251 DEB", "group": "cosmos-2251-debris", "lat": -22.348711339122392, "lon": 118.44308904722556, "alt_km": 797.1608695397827, "timestamp": "2025-12-20T16:47:36.677952+00:00", "meta": {"OBJECT_NAME": "COSMOS 2251 DEB", "OBJECT_ID": "1993-036FA", "EPOCH": "2025-12-20T04:08:03.886944", "MEAN_MOTION": 14.34606311, "ECCENTRICITY": 0.0022229, "INCLINATION": 74.0302, "RA_OF_ASC_NODE": 292.6481, "ARG_OF_PERICENTER": 16.9819, "MEAN_ANOMALY": 343.2072, "EPHEMERIS_TYPE": 0, "CLASSIFICATION_TYPE": "U", "NORAD_CAT_ID": 33945, "ELEMENT_SET_NO": 999, "REV_AT_EPOCH": 88122, "BSTAR": 9.6971e-05, "MEAN_MOTION_DOT": 2.49e-06, "MEAN_MOTION_DDOT": 0}, "tle": {"line1": "1 33945U 93036FA  25354.17226721  .00000249  00000+0  96971-4 0  9992", "line2": "2 33945  74.0302 292.6481 0022229  16.9819 343.2072 14.34606311881226"}}, "geometry": {"type": "Point", "coordinates": [118.44308904722556, -22.348711339122392]}}, {"type": "Feature", "properties": {"norad_id": 33948, "name": "COSMOS 2251 DEB", "group": "cosmos-2251-debris", "lat": 72.1355467684362, "lon": -6.831086971587856, "alt_km": 762.0451622733435, "timestamp": "2025-12-20T16:47:36.677962+00:00", "meta": {"OBJECT_NAME": "COSMOS 2251 DEB", "OBJECT_ID": "1993-036FD", "EPOCH": "2025-12-20T06:22:49.548864", "MEAN_MOTION": 14.35637518, "ECCENTRICITY": 0.0023063, "INCLINATION": 74.036, "RA_OF_ASC_NODE": 291.3252, "ARG_OF_PERICENTER": 5.314, "MEAN_ANOMALY": 354.8253, "EPHEMERIS_TYPE": 0, "CLASSIFICATION_TYPE": "U", "NORAD_CAT_ID": 33948, "ELEMENT_SET_NO": 999, "REV_AT_EPOCH": 88131, "BSTAR": 0.00014276, "MEAN_MOTION_DOT": 3.87e-06, "MEAN_MOTION_DDOT": 0}, "tle": {"line1": "1 33948U 93036FD  25354.26585126  .00000387  00000+0  14276-3 0  9992", "line2": "2 33948  74.0360 291.3252 0023063   5.3140 354.8253 14.35637518881314"}}, "geometry": {"type": "Point", "coordinates": [-6.831086971587856, 72.1355467684362]}}, {"type": "Feature", "properties": {"norad_id": 33971, "name": "COSMOS 2251 DEB", "group": "cosmos-2251-debris", "lat": -73.67467435463453, "lon": 136.9948049074531, "alt_km": 762.0253141386938, "timestamp": "2025-12-20T16:47:36.677973+00:00", "meta": {"OBJECT_NAME": "COSMOS 2251 DEB", "OBJECT_ID": "1993-036FE", "EPOCH": "2025-12-20T02:54:46.541664", "MEAN_MOTION": 14.39737294, "ECCENTRICITY": 0.00188346, "INCLINATION": 74.0244, "RA_OF_ASC_NODE": 240.091, "ARG_OF_PERICENTER": 339.295, "MEAN_ANOMALY": 171.0908, "EPHEMERIS_TYPE": 0, "CLASSIFICATION_TYPE": "U", "NORAD_CAT_ID": 33971, "ELEMENT_SET_NO": 999, "REV_AT_EPOCH": 88245, "BSTAR": 0.00019059706, "MEAN_MOTION_DOT": 5.72e-06, "MEAN_MOTION_DDOT": 0}, "tle": {"line1": "1 33971U 93036FE  25354.12137201  .00000572  00000+0  19060-3 0  9992", "line2": "2 33971  74.0244 240.0910 0018834 339.2950 171.0908 14.39737294882459"}}, "geometry": {"type": "Point", "coordinates": [136.9948049074531, -73.67467435463453]}}, {"type": "Feature", "properties": {"norad_id": 33972, "name": "COSMOS 2251 DEB", "group": "cosmos-2251-debris", "lat": 67.21522922192138, "lon": -47.10379168053824, "alt_km": 813.1143493896989, "timestamp": "2025-12-20T16:47:36.677983+00:00", "meta": {"OBJECT_NAME": "COSMOS 2251 DEB", "OBJECT_ID": "1993-036FF", "EPOCH": "2025-12-20T07:06:08.155008", "MEAN_MOTION": 14.3627436, "ECCENTRICITY": 0.0123671, "INCLINATION": 73.9935, "RA_OF_ASC_NODE": 176.7482, "ARG_OF_PERICENTER": 342.8449, "MEAN_ANOMALY": 195.3137, "EPHEMERIS_TYPE": 0, "CLASSIFICATION_TYPE": "U", "NORAD_CAT_ID": 33972, "ELEMENT_SET_NO": 999, "REV_AT_EPOCH": 87182, "BSTAR": 0.00083133, "MEAN_MOTION_DOT": 2.623e-05, "MEAN_MOTION_DDOT": 0}, "tle": {"line1": "1 33972U 93036FF  25354.29592772  .00002623  00000+0  83133-3 0  9990", "line2": "2 33972  73.9935 176.7482 0123671 342.8449 195.3137 14.36274360871822"}}, "geometry": {"type": "Point", "coordinates": [-47.10379168053824, 67.21522922192138]}}, {"type": "Feature", "properties": {"norad_id": 33973, "name": "COSMOS 2251 DEB", "group": "cosmos-2251-debris", "lat": 58.55610807918631, "lon": -119.937814699949, "alt_km": 763.1538774104029, "timestamp": "2025-12-20T16:47:36.677993+00:00", "meta": {"OBJECT_NAME": "COSMOS 2251 DEB", "OBJECT_ID": "1993-036FG", "EPOCH": "2025-12-20T09:56:56.584320", "MEAN_MOTION": 14.45398467, "ECCENTRICITY": 0.00474, "INCLINATION": 74.0087, "RA_OF_ASC_NODE": 88.5634, "ARG_OF_PERICENTER": 265.5784, "MEAN_ANOMALY": 168.7522, "EPHEMERIS_TYPE": 0, "CLASSIFICATION_TYPE": "U", "NORAD_CAT_ID": 33973, "ELEMENT_SET_NO": 999, "REV_AT_EPOCH": 88711, "BSTAR": 0.00010686, "MEAN_MOTION_DOT": 3.53e-06, "MEAN_MOTION_DDOT": 0}, "tle": {"line1": "1 33973U 93036FG  25354.41454380  .00000353  00000+0  10686-3 0  9998", "line2": "2 33973  74.0087  88.5634 0047400 265.5784 168.7522 14.45398467887116"}}, "geometry": {"type": "Point", "coordinates": [-119.937814699949, 58.55610807918631]}}, {"type": "Feature", "properties": {"norad_id": 33975, "name": "COSMOS 2251 DEB", "group": "cosmos-2251-debris", "lat": -33.717231056470794, "lon": -98.35386613545896, "alt_km": 762.2554628911512, "timestamp": "2025-12-20T16:47:36.678003+00:00", "meta": {"OBJECT_NAME": "COSMOS 2251 DEB", "OBJECT_ID": "1993-036FJ", "EPOCH": "2025-12-20T12:20:20.266080", "MEAN_MOTION": 14.00539333, "ECCENTRICITY": 0.019106, "INCLINATION": 73.8018, "RA_OF_ASC_NODE": 70.787, "ARG_OF_PERICENTER": 202.4885, "MEAN_ANOMALY": 156.7793, "EPHEMERIS_TYPE": 0, "CLASSIFICATION_TYPE": "U", "NORAD_CAT_ID": 33975, "ELEMENT_SET_NO": 999, "REV_AT_EPOCH": 85938, "BSTAR": 0.00039188, "MEAN_MOTION_DOT": 6.56e-06, "MEAN_MOTION_DDOT": 0}, "tle": {"line1": "1 33975U 93036FJ  25354.51412345  .00000656  00000+0  39188-3 0  9990", "line2": "2 33975  73.8018  70.7870 0191060 202.4885 156.7793 14.00539333859383"}}, "geometry": {"type": "Point", "coordinates": [-98.35386613545896, -33.717231056470794]}}]}